STARLINK-30376          
1 57782U 23134M   26068.38747880 -.00003295  00000+0 -11320-3 0  9999
2 57782  42.9998 195.9286 0001721 263.6896  96.3759 15.26735214139461
FOSSASAT-2E20 (TAT-O)   
1 63003U 25009DN  26068.70855016  .00016337  00000+0  61863-3 0  9998
2 63003  97.3231 146.2859 0002189 347.5575  12.5610 15.26991080121314
