[{"OBJECT_NAME":"STARLINK-30376","OBJECT_ID":"2023-134M","EPOCH":"2026-03-09T09:17:58.168320","MEAN_MOTION":15.26735214,"ECCENTRICITY":0.00017213,"INCLINATION":42.9998,"RA_OF_ASC_NODE":195.9286,"ARG_OF_PERICENTER":263.6896,"MEAN_ANOMALY":96.3759,"EPHEMERIS_TYPE":0,"CLASSIFICATION_TYPE":"U","NORAD_CAT_ID":57782,"ELEMENT_SET_NO":999,"REV_AT_EPOCH":13946,"BSTAR":-0.00011319869,"MEAN_MOTION_DOT":-3.295e-5,"MEAN_MOTION_DDOT":0},{"OBJECT_NAME":"FOSSASAT-2E20 (TAT-O)","OBJECT_ID":"2025-009DN","EPOCH":"2026-03-09T17:00:18.734688","MEAN_MOTION":15.2699108,"ECCENTRICITY":0.00021892,"INCLINATION":97.3231,"RA_OF_ASC_NODE":146.2859,"ARG_OF_PERICENTER":347.5575,"MEAN_ANOMALY":12.561,"EPHEMERIS_TYPE":0,"CLASSIFICATION_TYPE":"U","NORAD_CAT_ID":63003,"ELEMENT_SET_NO":999,"REV_AT_EPOCH":12131,"BSTAR":0.00061862572,"MEAN_MOTION_DOT":0.00016337,"MEAN_MOTION_DDOT":0}]
